[
    {
        "Altitude(m)": 607897.6133475312,
        "Argument of Periapsis(deg)": 0.0,
        "Eccentricity": 0.0,
        "Inclination(deg)": 60.0,
        "Latitude(deg)": -14.292927260047042,
        "Longitude(deg)": 41.61877947106502,
        "Mean Anomaly(deg)": -16.363600000000062,
        "RAAN(deg)": 150.0,
        "Satellite Name": "Test1 681",
        "Satellite Number": 681,
        "Semi-Major Axis(m)": 6980739.136638005,
        "Time(s)": 0
    },
    {
        "Altitude(m)": 607750.8145946317,
        "Argument of Periapsis(deg)": 0.00010418945913296404,
        "Eccentricity": 0.0,
        "Inclination(deg)": 60.0,
        "Latitude(deg)": -13.758768175328719,
        "Longitude(deg)": 41.9058474415706,
        "Mean Anomaly(deg)": -15.74349385453821,
        "RAAN(deg)": 149.99957995086027,
        "Satellite Name": "Test1 681",
        "Satellite Number": 681,
        "Semi-Major Axis(m)": 6980739.136638005,
        "Time(s)": 10
    }
]